EARTHCARE               
1 59908U 24101A   24182.87172601  .00018210  00000+0  27800-3 0  9999
2 59908  96.9808 310.3092 0004905  69.3437 290.8344 15.54469417  5114
